[{"OBJECT_NAME":"STARLINK-32159","OBJECT_ID":"2024-132R","EPOCH":"2026-03-09T08:34:27.071328","MEAN_MOTION":15.30169192,"ECCENTRICITY":0.00013406,"INCLINATION":53.161,"RA_OF_ASC_NODE":53.6754,"ARG_OF_PERICENTER":85.2183,"MEAN_ANOMALY":274.8971,"EPHEMERIS_TYPE":0,"CLASSIFICATION_TYPE":"U","NORAD_CAT_ID":60293,"ELEMENT_SET_NO":999,"REV_AT_EPOCH":9151,"BSTAR":-9.0282338e-5,"MEAN_MOTION_DOT":-3.029e-5,"MEAN_MOTION_DDOT":0},{"OBJECT_NAME":"CZ-6A DEB","OBJECT_ID":"2024-140PU","EPOCH":"2026-03-09T02:24:11.901600","MEAN_MOTION":14.96529453,"ECCENTRICITY":0.01989751,"INCLINATION":89.1479,"RA_OF_ASC_NODE":289.7131,"ARG_OF_PERICENTER":96.8489,"MEAN_ANOMALY":265.5425,"EPHEMERIS_TYPE":0,"CLASSIFICATION_TYPE":"U","NORAD_CAT_ID":61126,"ELEMENT_SET_NO":999,"REV_AT_EPOCH":8404,"BSTAR":0.00070354239,"MEAN_MOTION_DOT":0.00012037,"MEAN_MOTION_DDOT":0}]
